NORAD_CAT_ID,OBJECT_NAME,OBJECT_TYPE,EPOCH,MEAN_MOTION,ECCENTRICITY,INCLINATION,RA_OF_ASC_NODE,ARG_OF_PERICENTER,MEAN_ANOMALY,BSTAR,MEAN_MOTION_DOT,MEAN_MOTION_DDOT,TLE_LINE0,TLE_LINE1,TLE_LINE2,SEMIMAJOR_AXIS,PERIOD,APOGEE,PERIGEE,DECAYED
55761.0,STARLINK-5611,PAYLOAD,2023-07-14 07:28:41,14.99302828,0.0002461,69.9994,148.8428,268.5199,91.5679,1.3109e-05,6.7e-07,0.0,0 STARLINK-5611,1 55761U 23028W   23195.31159405  .00000067  00000-0  13109-4 0  9998,2 55761  69.9994 148.8428 0002461 268.5199  91.5679 14.99302828 21321,6947.186,96.045,570.761,567.341,0.0
55761.0,STARLINK-5611,PAYLOAD,2023-07-15 05:53:41,14.9930703,0.0002454,69.9995,146.4841,270.1435,89.9443,9.1669e-05,1.028e-05,0.0,0 STARLINK-5611,1 55761U 23028W   23196.24562272  .00001028  00000-0  91669-4 0  9996,2 55761  69.9995 146.4841 0002454 270.1435  89.9443 14.99307030 21464,6947.173,96.044,570.743,567.333,0.0
55761.0,STARLINK-5611,PAYLOAD,2023-07-16 02:42:39,14.99292143,0.0002293,69.9997,144.2939,269.5381,90.5516,-6.7072e-05,-9.14e-06,0.0,0 STARLINK-5611,1 55761U 23028W   23197.11295567 -.00000914  00000-0 -67072-4 0  9999,2 55761  69.9997 144.2939 0002293 269.5381  90.5516 14.99292143 21594,6947.219,96.045,570.677,567.491,0.0
55761.0,STARLINK-5611,PAYLOAD,2023-07-16 13:55:09,14.99297631,0.0002437,69.9995,143.1145,272.0813,88.0067,-5.1599e-05,-7.25e-06,0.0,0 STARLINK-5611,1 55761U 23028W   23197.57997055 -.00000725  00000-0 -51599-4 0  9997,2 55761  69.9995 143.1145 0002437 272.0813  88.0067 14.99297631 21666,6947.202,96.045,570.76,567.374,0.0
55761.0,STARLINK-5611,PAYLOAD,2023-07-17 23:32:39,14.99301407,0.0002473,69.9993,139.5763,273.5416,86.5461,0.00010872,1.237e-05,0.0,0 STARLINK-5611,1 55761U 23028W   23198.98101461  .00001237  00000-0  10872-3 0  9996,2 55761  69.9993 139.5763 0002473 273.5416  86.5461 14.99301407 21875,6947.191,96.045,570.774,567.337,0.0
55761.0,STARLINK-5611,PAYLOAD,2023-07-18 07:33:00,14.9930903,0.000246,69.9995,138.7343,273.9411,86.1468,0.00017652,2.067e-05,0.0,0 STARLINK-5611,1 55761U 23028W   23199.31459089  .00002067  00000-0  17652-3 0  9991,2 55761  69.9995 138.7343 0002460 273.9411  86.1468 14.99309030 21926,6947.167,96.044,570.741,567.323,0.0
55761.0,STARLINK-5611,PAYLOAD,2023-07-19 04:21:53,14.99359377,0.0002246,69.9998,136.5446,276.3437,83.7467,0.00058765,7.115e-05,0.0,0 STARLINK-5611,1 55761U 23028W   23200.18186595  .00007115  00000-0  58765-3 0  9997,2 55761  69.9998 136.5446 0002246 276.3437  83.7467 14.99359377 22052,6947.011,96.041,570.437,567.316,0.0
55761.0,STARLINK-5611,PAYLOAD,2023-07-19 18:46:35,14.99308371,0.0002235,70.0,135.0296,272.3965,87.6938,-6.281e-05,-8.62e-06,0.0,0 STARLINK-5611,1 55761U 23028W   23200.78235863 -.00000862  00000-0 -62810-4 0  9997,2 55761  70.0000 135.0296 0002235 272.3965  87.6938 14.99308371 22140,6947.169,96.044,570.587,567.481,0.0
55761.0,STARLINK-5611,PAYLOAD,2023-07-20 21:59:50,14.99300104,0.0002531,69.9995,132.1643,270.1373,89.9496,-0.00020313,-2.578e-05,0.0,0 STARLINK-5611,1 55761U 23028W   23201.91655695 -.00002578  00000-0 -20313-3 0  9999,2 55761  69.9995 132.1643 0002531 270.1373  89.9496 14.99300104 22311,6947.195,96.045,570.818,567.301,0.0
55761.0,STARLINK-5611,PAYLOAD,2023-07-21 06:00:11,14.99305433,0.0002535,69.9994,131.322,270.3212,89.7657,-0.00012427,-1.614e-05,0.0,0 STARLINK-5611,1 55761U 23028W   23202.25013520 -.00001614  00000-0 -12427-3 0  9999,2 55761  69.9994 131.3220 0002535 270.3212  89.7657 14.99305433 22362,6947.178,96.044,570.804,567.282,0.0
55761.0,STARLINK-5611,PAYLOAD,2023-07-23 14:02:43,14.99299667,0.000248,70.0004,125.4265,255.6388,104.4496,5.3955e-06,-2.8e-07,0.0,0 STARLINK-5611,1 55761U 23028W   23204.58522541 -.00000028  00000-0  53955-5 0  9995,2 55761  70.0004 125.4265 0002480 255.6388 104.4496 14.99299667 22715,6947.196,96.045,570.784,567.338,0.0
55761.0,STARLINK-5611,PAYLOAD,2023-07-24 22:04:10,14.99281095,0.0002664,70.001,122.0538,268.3557,91.7298,0.00022846,2.701e-05,0.0,0 STARLINK-5611,1 55761U 23028W   23205.91956761  .00002701  00000-0  22846-3 0  9990,2 55761  70.0010 122.0538 0002664 268.3557  91.7298 14.99281095 22917,6947.253,96.046,570.969,567.268,0.0
55761.0,STARLINK-5611,PAYLOAD,2023-07-26 04:29:32,14.99305956,0.0003052,69.9986,118.8543,256.4538,103.6282,5.5067e-05,5.8e-06,0.0,0 STARLINK-5611,1 55761U 23028W   23207.18717740  .00000580  00000-0  55067-4 0  9998,2 55761  69.9986 118.8543 0003052 256.4538 103.6282 14.99305956 23105,6947.176,96.044,571.162,566.921,0.0
55761.0,STARLINK-5611,PAYLOAD,2023-07-26 22:06:19,14.99302932,0.0003018,69.9992,117.0022,261.6157,98.4661,9.1331e-06,1.8e-07,0.0,0 STARLINK-5611,1 55761U 23028W   23207.92106347  .00000018  00000-0  91331-5 0  9996,2 55761  69.9992 117.0022 0003018 261.6157  98.4661 14.99302932 23217,6947.186,96.045,571.147,566.954,0.0
55761.0,STARLINK-5611,PAYLOAD,2023-07-27 06:06:40,14.99313946,0.0002993,69.9992,116.1597,263.0218,97.0601,0.00011875,1.36e-05,0.0,0 STARLINK-5611,1 55761U 23028W   23208.25463597  .00001360  00000-0  11875-3 0  9990,2 55761  69.9992 116.1597 0002993 263.0218  97.0601 14.99313946 23260,6947.152,96.044,571.096,566.938,0.0
55761.0,STARLINK-5611,PAYLOAD,2023-07-27 20:31:21,14.99291529,0.000278,69.9991,114.6436,263.1691,96.9152,-0.00014336,-1.847e-05,0.0,0 STARLINK-5611,1 55761U 23028W   23208.85510977 -.00001847  00000-0 -14336-3 0  9998,2 55761  69.9991 114.6436 0002780 263.1691  96.9152 14.99291529 23355,6947.221,96.045,571.017,567.155,0.0
55761.0,STARLINK-5611,PAYLOAD,2023-07-28 01:19:34,14.99289939,0.0002836,69.9994,114.1384,264.545,95.5386,-0.00014764,-1.899e-05,0.0,0 STARLINK-5611,1 55761U 23028W   23209.05526215 -.00001899  00000-0 -14764-3 0  9995,2 55761  69.9994 114.1384 0002836 264.5450  95.5386 14.99289939 23384,6947.226,96.045,571.061,567.121,0.0
55761.0,STARLINK-5611,PAYLOAD,2023-07-28 23:45:13,14.98852339,0.0002689,69.9975,111.7801,282.4494,77.6365,-0.004834,-0.00058075,0.0,0 STARLINK-5611,1 55761U 23028W   23209.98973426 -.00058075  00000-0 -48340-2 0  9991,2 55761  69.9975 111.7801 0002689 282.4494  77.6365 14.98852339 23526,6948.578,96.074,572.312,568.575,0.0
55761.0,STARLINK-5611,PAYLOAD,2023-07-29 17:22:29,14.98704881,0.0002575,69.9997,109.9301,269.0028,91.0836,-0.0051236,-0.00061286,0.0,0 STARLINK-5611,1 55761U 23028W   23210.72395406 -.00061286  00000-0 -51236-2 0  9997,2 55761  69.9997 109.9301 0002575 269.0028  91.0836 14.98704881 23635,6949.034,96.083,572.688,569.109,0.0
55761.0,STARLINK-5611,PAYLOAD,2023-07-30 19:00:23,14.98454479,0.0002821,69.9991,107.2358,270.81,89.2736,-0.0019452,-0.000233,0.0,0 STARLINK-5611,1 55761U 23028W   23211.79194233 -.00023300  00000-0 -19452-2 0  9999,2 55761  69.9991 107.2358 0002821 270.8100  89.2736 14.98454479 23797,6949.808,96.099,573.634,569.712,0.0
55761.0,STARLINK-5611,PAYLOAD,2023-07-31 06:00:00,14.98339866,0.0002857,70.0013,106.0809,272.6267,37.5858,-0.0030422,-0.00036214,0.0,0 STARLINK-5611,1 55761U 23028W   23212.25001157 -.00036214  00000-0 -30422-2 0  9991,2 55761  70.0013 106.0809 0002857 272.6267  37.5858 14.98339866 23856,6950.162,96.106,574.013,570.042,0.0
55761.0,STARLINK-5611,PAYLOAD,2023-07-31 22:00:00,14.98342867,0.0002889,70.0016,104.4003,270.1492,35.0126,-0.0023135,-0.00027598,0.0,0 STARLINK-5611,1 55761U 23028W   23212.91667824 -.00027598  00000-0 -23135-2 0  9991,2 55761  70.0016 104.4003 0002889 270.1492  35.0126 14.98342867 23952,6950.153,96.106,574.026,570.01,0.0
55761.0,STARLINK-5611,PAYLOAD,2023-08-01 14:00:01,14.98292241,0.0002864,70.0012,102.7195,266.2698,33.9287,0.0064378,0.00077501,0.0,0 STARLINK-5611,1 55761U 23028W   23213.58335648  .00077501  00000-0  64378-2 0  9992,2 55761  70.0012 102.7195 0002864 266.2698  33.9287 14.98292241 24055,6950.31,96.109,574.165,570.184,0.0
55761.0,STARLINK-5611,PAYLOAD,2023-08-02 03:05:06,14.98331845,0.0002541,69.9995,101.3441,268.0253,92.0615,-1.3829e-05,-2.58e-06,0.0,0 STARLINK-5611,1 55761U 23028W   23214.12854255 -.00000258  00000-0 -13829-4 0  9997,2 55761  69.9995 101.3441 0002541 268.0253  92.0615 14.98331845 24145,6950.187,96.107,573.818,570.286,0.0
55761.0,STARLINK-5611,PAYLOAD,2023-08-03 03:07:06,14.98334654,0.000263,69.9994,98.8194,270.0263,90.0594,9.5562e-05,1.048e-05,0.0,0 STARLINK-5611,1 55761U 23028W   23215.12993634  .00001048  00000-0  95562-4 0  9993,2 55761  69.9994  98.8194 0002630 270.0263  90.0594 14.98334654 24293,6950.178,96.107,573.871,570.216,0.0
55761.0,STARLINK-5611,PAYLOAD,2023-08-03 19:08:27,14.98324593,0.0002531,69.9998,97.137,266.1033,93.9837,-2.1563e-05,-3.5e-06,0.0,0 STARLINK-5611,1 55761U 23028W   23215.79754567 -.00000350  00000-0 -21563-4 0  9993,2 55761  69.9998  97.1370 0002531 266.1033  93.9837 14.98324593 24390,6950.21,96.107,573.834,570.316,0.0
55761.0,STARLINK-5611,PAYLOAD,2023-08-04 19:10:29,14.98308938,0.000274,69.9993,94.6107,264.3028,95.7818,0.00032687,3.807e-05,0.0,0 STARLINK-5611,1 55761U 23028W   23216.79894843  .00003807  00000-0  32687-3 0  9992,2 55761  69.9993  94.6107 0002740 264.3028  95.7818 14.98308938 24542,6950.258,96.108,574.027,570.219,0.0
55761.0,STARLINK-5611,PAYLOAD,2023-08-05 01:35:00,14.98330414,0.0002494,69.9995,93.9372,256.8743,103.2138,1.1016e-05,3.9e-07,0.0,0 STARLINK-5611,1 55761U 23028W   23217.06598214  .00000039  00000-0  11016-4 0  9994,2 55761  69.9995  93.9372 0002494 256.8743 103.2138 14.98330414 24584,6950.192,96.107,573.79,570.323,0.0
55761.0,STARLINK-5611,PAYLOAD,2023-08-06 01:37:01,14.98335754,0.0002779,69.9994,91.4132,265.2833,94.8008,0.00013027,1.462e-05,0.0,0 STARLINK-5611,1 55761U 23028W   23218.06737351  .00001462  00000-0  13027-3 0  9996,2 55761  69.9994  91.4132 0002779 265.2833  94.8008 14.98335754 24730,6950.175,96.107,573.972,570.109,0.0
55761.0,STARLINK-5611,PAYLOAD,2023-08-06 17:38:22,14.98323599,0.0002721,69.9996,89.7306,265.4127,94.6721,-7.1387e-05,-9.44e-06,0.0,0 STARLINK-5611,1 55761U 23028W   23218.73498793 -.00000944  00000-0 -71387-4 0  9994,2 55761  69.9996  89.7306 0002721 265.4127  94.6721 14.98323599 24835,6950.213,96.107,573.969,570.187,0.0
